ONEWEB-0613             
1 56071U 23043AB  23333.76970102 -.00000362  00000+0 -99533-3 0  9991
2 56071  87.9002  84.4272 0001826 118.5442 241.5872 13.15545042 35014
ONEWEB-0630             
1 56072U 23043AC  23334.37340393  .00000175  00000+0  43207-3 0  9990
2 56072  87.9000  84.3048 0001285 117.7774 242.3486 13.15547032 35089
ONEWEB-0632             
1 56073U 23043AD  23334.36866250  .00000190  00000+0  47064-3 0  9997
2 56073  87.9005  84.3234 0001308  90.9396 269.1884 13.15548211 35089
ONEWEB-0633             
1 56074U 23043AE  23334.36231132  .00000101  00000+0  23352-3 0  9999
2 56074  87.8997  84.3147 0001424 128.2619 231.8640 13.15547620 35061
ONEWEB-0634             
1 56075U 23043AF  23334.34806927 -.00000022  00000+0 -93407-4 0  9991
2 56075  87.9005  84.3151 0001917 113.0489 247.0843 13.15547914 35051
ONEWEB-0635             
1 56076U 23043AG  23334.34331910 -.00000049  00000+0 -16379-3 0  9998
2 56076  87.8982  84.3814 0001274  81.2040 278.9235 13.15547828 35081
ONEWEB-0636             
1 56077U 23043AH  23334.33539163  .00000340  00000+0  86906-3 0  9993
2 56077  87.8980  84.3484 0001920  98.0400 262.0948 13.15553301 35063
ONEWEB-0637             
1 56078U 23043AJ  23334.32906310  .00004960  00000+0  13139-1 0  9993
2 56078  87.9012  84.3204 0001610  93.4293 266.7021 13.15524639 35083
